{
  "type": "FeatureCollection",
  "features": [
    {
      "type": "Feature",
      "properties": {
        "norad_id": 32353,
        "name": "FENGYUN 1C DEB",
        "group": "fengyun-1c-debris",
        "lat": -20.12558833491641,
        "lon": 163.24399458729692,
        "alt_km": 945.4548834536599,
        "timestamp": "2025-12-09T09:46:47.932716+00:00",
        "meta_object_name": "FENGYUN 1C DEB",
        "meta_object_id": "1999-025CYW",
        "meta_epoch": "2025-12-08T18:28:58.286784",
        "meta_mean_motion": 14.03757084,
        "meta_eccentricity": 0.01259706,
        "meta_inclination": 98.9223,
        "meta_ra_of_asc_node": 159.3182,
        "meta_arg_of_pericenter": 210.3079,
        "meta_mean_anomaly": 149.0761,
        "meta_ephemeris_type": 0,
        "meta_classification_type": "U",
        "meta_norad_cat_id": 32353,
        "meta_element_set_no": 999,
        "meta_rev_at_epoch": 63138,
        "meta_bstar": 0.0049359934,
        "meta_mean_motion_dot": 8.3e-05,
        "meta_mean_motion_ddot": 0,
        "tle_line1": "1 32353U 99025CYW 25342.77011906  .00008300  00000+0  49360-2 0  9992",
        "tle_line2": "2 32353  98.9223 159.3182 0125970 210.3079 149.0761 14.03757084631384"
      },
      "geometry": {
        "type": "Point",
        "coordinates": [
          163.24399458729692,
          -20.12558833491641
        ]
      }
    },
    {
      "type": "Feature",
      "properties": {
        "norad_id": 32355,
        "name": "FENGYUN 1C DEB",
        "group": "fengyun-1c-debris",
        "lat": -22.353217821793212,
        "lon": 86.36754354455796,
        "alt_km": 489.179864838281,
        "timestamp": "2025-12-09T09:46:47.932727+00:00",
        "meta_object_name": "FENGYUN 1C DEB",
        "meta_object_id": "1999-025CYY",
        "meta_epoch": "2025-11-30T13:45:12.852288",
        "meta_mean_motion": 15.2698689,
        "meta_eccentricity": 0.00340494,
        "meta_inclination": 100.3462,
        "meta_ra_of_asc_node": 258.4114,
        "meta_arg_of_pericenter": 91.868,
        "meta_mean_anomaly": 83.2659,
        "meta_ephemeris_type": 0,
        "meta_classification_type": "U",
        "meta_norad_cat_id": 32355,
        "meta_element_set_no": 999,
        "meta_rev_at_epoch": 64804,
        "meta_bstar": 0.0114101,
        "meta_mean_motion_dot": 0.00320062,
        "meta_mean_motion_ddot": 0,
        "tle_line1": "1 32355U 99025CYY 25334.57306542  .00320062  00000+0  11410-1 0  9992",
        "tle_line2": "2 32355 100.3462 258.4114 0034049  91.8680  83.2659 15.26986890648042"
      },
      "geometry": {
        "type": "Point",
        "coordinates": [
          86.36754354455796,
          -22.353217821793212
        ]
      }
    },
    {
      "type": "Feature",
      "properties": {
        "norad_id": 32356,
        "name": "FENGYUN 1C DEB",
        "group": "fengyun-1c-debris",
        "lat": 3.492169936397351,
        "lon": 25.190989731542803,
        "alt_km": 964.9804268076105,
        "timestamp": "2025-12-09T09:46:47.932737+00:00",
        "meta_object_name": "FENGYUN 1C DEB",
        "meta_object_id": "1999-025CYZ",
        "meta_epoch": "2025-12-08T20:58:16.922208",
        "meta_mean_motion": 14.0333987,
        "meta_eccentricity": 0.01250546,
        "meta_inclination": 102.4946,
        "meta_ra_of_asc_node": 203.6854,
        "meta_arg_of_pericenter": 24.8867,
        "meta_mean_anomaly": 335.8248,
        "meta_ephemeris_type": 0,
        "meta_classification_type": "U",
        "meta_norad_cat_id": 32356,
        "meta_element_set_no": 999,
        "meta_rev_at_epoch": 68333,
        "meta_bstar": 0.0026470462,
        "meta_mean_motion_dot": 4.362e-05,
        "meta_mean_motion_ddot": 0,
        "tle_line1": "1 32356U 99025CYZ 25342.87380697  .00004362  00000+0  26470-2 0  9993",
        "tle_line2": "2 32356 102.4946 203.6854 0125054  24.8867 335.8248 14.03339870683331"
      },
      "geometry": {
        "type": "Point",
        "coordinates": [
          25.190989731542803,
          3.492169936397351
        ]
      }
    },
    {
      "type": "Feature",
      "properties": {
        "norad_id": 32357,
        "name": "FENGYUN 1C DEB",
        "group": "fengyun-1c-debris",
        "lat": 60.940966020154455,
        "lon": 6.706055237194823,
        "alt_km": 1243.4959525207041,
        "timestamp": "2025-12-09T09:46:47.932748+00:00",
        "meta_object_name": "FENGYUN 1C DEB",
        "meta_object_id": "1999-025CZA",
        "meta_epoch": "2025-12-03T20:59:33.570240",
        "meta_mean_motion": 13.68494988,
        "meta_eccentricity": 0.0493325,
        "meta_inclination": 98.8601,
        "meta_ra_of_asc_node": 17.9025,
        "meta_arg_of_pericenter": 211.2254,
        "meta_mean_anomaly": 330.7935,
        "meta_ephemeris_type": 0,
        "meta_classification_type": "U",
        "meta_norad_cat_id": 32357,
        "meta_element_set_no": 999,
        "meta_rev_at_epoch": 66666,
        "meta_bstar": 0.0053758,
        "meta_mean_motion_dot": 0.00010819,
        "meta_mean_motion_ddot": 0,
        "tle_line1": "1 32357U 99025CZA 25337.87469410  .00010819  00000+0  53758-2 0  9992",
        "tle_line2": "2 32357  98.8601  17.9025 0493325 211.2254 330.7935 13.68494988666661"
      },
      "geometry": {
        "type": "Point",
        "coordinates": [
          6.706055237194823,
          60.940966020154455
        ]
      }
    },
    {
      "type": "Feature",
      "properties": {
        "norad_id": 32361,
        "name": "FENGYUN 1C DEB",
        "group": "fengyun-1c-debris",
        "lat": 70.53591019630701,
        "lon": 15.971438950145872,
        "alt_km": 684.1816567503947,
        "timestamp": "2025-12-09T09:46:47.932759+00:00",
        "meta_object_name": "FENGYUN 1C DEB",
        "meta_object_id": "1999-025CZE",
        "meta_epoch": "2025-12-07T09:27:11.040192",
        "meta_mean_motion": 14.50921559,
        "meta_eccentricity": 0.00465385,
        "meta_inclination": 98.862,
        "meta_ra_of_asc_node": 40.0488,
        "meta_arg_of_pericenter": 60.7634,
        "meta_mean_anomaly": 299.82,
        "meta_ephemeris_type": 0,
        "meta_classification_type": "U",
        "meta_norad_cat_id": 32361,
        "meta_element_set_no": 999,
        "meta_rev_at_epoch": 96267,
        "meta_bstar": 0.0030087912,
        "meta_mean_motion_dot": 0.00012017,
        "meta_mean_motion_ddot": 0,
        "tle_line1": "1 32361U 99025CZE 25341.39387778  .00012017  00000+0  30088-2 0  9998",
        "tle_line2": "2 32361  98.8620  40.0488 0046538  60.7634 299.8200 14.50921559962677"
      },
      "geometry": {
        "type": "Point",
        "coordinates": [
          15.971438950145872,
          70.53591019630701
        ]
      }
    },
    {
      "type": "Feature",
      "properties": {
        "norad_id": 32362,
        "name": "FENGYUN 1C DEB",
        "group": "fengyun-1c-debris",
        "lat": 36.0568596677807,
        "lon": -52.729309758185785,
        "alt_km": 1055.1253164228438,
        "timestamp": "2025-12-09T09:46:47.932769+00:00",
        "meta_object_name": "FENGYUN 1C DEB",
        "meta_object_id": "1999-025CZF",
        "meta_epoch": "2025-12-07T15:23:15.342720",
        "meta_mean_motion": 13.65140835,
        "meta_eccentricity": 0.02754875,
        "meta_inclination": 99.8447,
        "meta_ra_of_asc_node": 312.7403,
        "meta_arg_of_pericenter": 298.1645,
        "meta_mean_anomaly": 59.1918,
        "meta_ephemeris_type": 0,
        "meta_classification_type": "U",
        "meta_norad_cat_id": 32362,
        "meta_element_set_no": 999,
        "meta_rev_at_epoch": 91060,
        "meta_bstar": 0.0060602721,
        "meta_mean_motion_dot": 6.323e-05,
        "meta_mean_motion_ddot": 0,
        "tle_line1": "1 32362U 99025CZF 25341.64114980  .00006323  00000+0  60603-2 0  9999",
        "tle_line2": "2 32362  99.8447 312.7403 0275487 298.1645  59.1918 13.65140835910602"
      },
      "geometry": {
        "type": "Point",
        "coordinates": [
          -52.729309758185785,
          36.0568596677807
        ]
      }
    },
    {
      "type": "Feature",
      "properties": {
        "norad_id": 32363,
        "name": "FENGYUN 1C DEB",
        "group": "fengyun-1c-debris",
        "lat": 70.64013045155109,
        "lon": 145.53428872248745,
        "alt_km": 388.2042051884455,
        "timestamp": "2025-12-09T09:46:47.932780+00:00",
        "meta_object_name": "FENGYUN 1C DEB",
        "meta_object_id": "1999-025CZG",
        "meta_epoch": "2025-12-08T14:41:02.670144",
        "meta_mean_motion": 15.46635681,
        "meta_eccentricity": 0.0064271,
        "meta_inclination": 98.332,
        "meta_ra_of_asc_node": 299.9675,
        "meta_arg_of_pericenter": 155.2351,
        "meta_mean_anomaly": 205.2005,
        "meta_ephemeris_type": 0,
        "meta_classification_type": "U",
        "meta_norad_cat_id": 32363,
        "meta_element_set_no": 999,
        "meta_rev_at_epoch": 96744,
        "meta_bstar": 0.0020208,
        "meta_mean_motion_dot": 0.0011037,
        "meta_mean_motion_ddot": 0,
        "tle_line1": "1 32363U 99025CZG 25342.61183646  .00110370  00000+0  20208-2 0  9998",
        "tle_line2": "2 32363  98.3320 299.9675 0064271 155.2351 205.2005 15.46635681967442"
      },
      "geometry": {
        "type": "Point",
        "coordinates": [
          145.53428872248745,
          70.64013045155109
        ]
      }
    }
  ]
}